CREATION_DATE,OBJECT_NAME,OBJECT_ID,CENTER_NAME,REF_FRAME,TIME_SYSTEM,MEAN_ELEMENT_THEORY,EPOCH,MEAN_MOTION,ECCENTRICITY,INCLINATION,RA_OF_ASC_NODE,ARG_OF_PERICENTER,MEAN_ANOMALY,EPHEMERIS_TYPE,REV_AT_EPOCH,BSTAR,MEAN_MOTION_DOT,MEAN_MOTION_DDOT,SEMIMAJOR_AXIS,PERIOD,APOAPSIS,PERIAPSIS,OBJECT_TYPE,LAUNCH_DATE,DECAY_DATE
2020-10-01T07:56:08,STARLINK-31,2019-029A,EARTH,TEME,UTC,SGP4,2020-10-01T07:31:19.437888,16.46847225,0.0009041,52.9736,36.3928,295.9879,160.3065,0,7697,0.00018159,0.09808971,1.2623e-05,6525.788,87.439,153.553,141.753,PAYLOAD,2019-05-24,2020-10-01
2020-10-14T00:36:09,STARLINK-52,2019-029AA,EARTH,TEME,UTC,SGP4,2020-10-13T17:23:45.076992,16.33038265,0.0006539,52.9866,227.4445,235.724,124.3359,0,7918,0.0014109,0.08958567,1.2115e-05,6562.524,88.179,188.68,180.098,PAYLOAD,2019-05-24,2020-10-13
2020-09-04T14:46:09,STARLINK-45,2019-029AB,EARTH,TEME,UTC,SGP4,2020-09-04T07:45:46.533600,16.38652946,0.0009412,52.9913,174.9865,250.3159,109.8966,0,7159,0.0021111,0.2512774,1.2274e-05,6547.525,87.877,175.552,163.227,PAYLOAD,2019-05-24,2020-09-04
2020-09-05T03:26:09,STARLINK-44,2019-029AC,EARTH,TEME,UTC,SGP4,2020-09-05T02:13:09.311232,16.35234008,0.0006119,52.9831,172.1242,239.5454,120.5504,0,7165,0.0024119,0.19263879,1.2182e-05,6556.648,88.06,182.525,174.501,PAYLOAD,2019-05-24,2020-09-05
2020-09-28T17:36:09,STARLINK-49,2019-029AD,EARTH,TEME,UTC,SGP4,2020-09-27T20:12:36.285696,16.23728101,0.0008965,53.0037,53.0192,308.653,51.7564,0,7533,0.0027635,0.07478847,1.1984e-05,6587.586,88.684,215.356,203.545,PAYLOAD,2019-05-24,2020-09-29
2020-10-15T12:16:08,STARLINK-72,2019-029AE,EARTH,TEME,UTC,SGP4,2020-10-15T11:24:14.113440,16.49183723,0.000333,52.982,318.7786,292.8532,67.5533,0,7817,0.00016439,0.12398314,1.2643e-05,6519.622,87.315,143.659,139.316,PAYLOAD,2019-05-24,2020-10-16
2020-09-16T18:36:09,STARLINK-35,2019-029AF,EARTH,TEME,UTC,SGP4,2020-09-16T16:58:24.439584,16.41142759,0.0004977,52.9869,110.3679,298.2751,61.7792,0,7351,0.0011425,0.18133919,1.2437e-05,6540.901,87.743,166.021,159.51,PAYLOAD,2019-05-24,2020-09-16
2020-10-13T16:56:09,STARLINK-63,2019-029AG,EARTH,TEME,UTC,SGP4,2020-10-13T16:16:39.726048,16.40378467,5.78e-05,52.9803,332.3076,316.8106,43.5401,0,7785,0.0020466,0.29311092,1.2381e-05,6542.932,87.784,165.176,164.419,PAYLOAD,2019-05-24,2020-10-13
2020-09-14T20:46:09,STARLINK-54,2019-029AH,EARTH,TEME,UTC,SGP4,2020-09-14T20:31:28.168896,16.52546679,0.0020137,52.9827,119.6547,244.8039,224.076,0,7318,0.0001,0.16097244,1.2572e-05,6510.774,87.138,145.75,119.529,PAYLOAD,2019-05-24,2020-09-15
2020-09-16T04:36:09,STARLINK-69,2019-029AJ,EARTH,TEME,UTC,SGP4,2020-09-15T23:53:25.924416,16.31646927,0.0006351,52.9852,113.5784,300.7439,212.2782,0,7341,0.0019064,0.10522816,1.219e-05,6566.254,88.254,192.289,183.949,PAYLOAD,2019-05-24,2020-09-16
2021-03-09T01:16:12,STARLINK-55,2019-029AK,EARTH,TEME,UTC,SGP4,2021-03-09T01:09:48.163968,16.55493516,0.0004294,53.1,298.079,211.0752,300.1477,0,10120,0.00062063,0.99999999,1.2761e-05,6503.046,86.983,127.704,122.119,PAYLOAD,2019-05-24,2021-03-09
2020-09-17T20:16:10,STARLINK-57,2019-029AL,EARTH,TEME,UTC,SGP4,2020-09-17T17:13:26.774400,16.40563533,0.0007388,52.9866,106.072,275.6248,88.0407,0,7371,0.0021419,0.31887751,1.2393e-05,6542.44,87.774,169.139,159.472,PAYLOAD,2019-05-24,2020-09-18
2020-08-23T05:06:09,STARLINK-58,2019-029AM,EARTH,TEME,UTC,SGP4,2020-08-23T03:09:46.298304,16.49769755,0.0010115,53.006,191.4104,188.7689,171.4914,0,7027,0.0001307,0.12051508,1.2468e-05,6518.078,87.284,146.536,133.35,PAYLOAD,2019-05-24,2020-08-23
2020-10-14T22:36:09,STARLINK-59,2019-029AN,EARTH,TEME,UTC,SGP4,2020-10-14T13:42:08.011584,16.30723255,0.0003539,52.9879,323.6967,53.2438,81.7998,0,7803,0.0013629,0.06839568,1.214e-05,6568.733,88.304,192.923,188.274,PAYLOAD,2019-05-24,2020-10-15
2020-09-02T06:26:10,STARLINK-51,2019-029AP,EARTH,TEME,UTC,SGP4,2020-09-02T05:27:34.557120,16.38700138,0.0004195,52.9819,186.8253,246.1664,114.4298,0,7118,0.0012012,0.14112946,1.2301e-05,6547.399,87.874,172.011,166.517,PAYLOAD,2019-05-24,2020-09-02
2020-12-26T09:56:08,STARLINK-60,2019-029AQ,EARTH,TEME,UTC,SGP4,2020-12-26T08:56:34.743840,16.42262567,0.0005472,52.9738,231.8413,237.7623,123.7494,0,9074,0.0010665,0.19593865,1.2379e-05,6537.927,87.683,163.37,156.215,PAYLOAD,2019-05-24,2020-12-26
2020-08-28T22:36:09,STARLINK-62,2019-029AR,EARTH,TEME,UTC,SGP4,2020-08-28T21:09:41.066784,16.50508848,0.000946,52.9905,161.8892,249.1018,186.662,0,7114,0.00014637,0.15076291,1.2601e-05,6516.132,87.245,144.162,131.833,PAYLOAD,2019-05-24,2020-08-28
2021-05-21T13:16:10,STARLINK-64,2019-029AS,EARTH,TEME,UTC,SGP4,2021-05-21T12:17:42.376992,16.3666851,0.0005976,52.9765,6.3365,281.9226,81.9336,0,11176,0.0016625,0.1553632,1.2295e-05,6552.817,87.984,178.598,170.766,PAYLOAD,2019-05-24,2021-05-21
2020-10-21T06:26:09,STARLINK-65,2019-029AT,EARTH,TEME,UTC,SGP4,2020-10-21T01:35:09.981600,16.33268807,0.0006998,52.9911,314.6487,54.336,308.5648,0,7874,0.0015821,0.10298997,1.2247e-05,6561.906,88.166,188.363,179.179,PAYLOAD,2019-05-24,2020-10-21
2020-08-09T09:26:08,STARLINK-41,2019-029AU,EARTH,TEME,UTC,SGP4,2020-08-09T08:57:30.860640,16.37648131,0.00150130,52.9901,257.7587,227.2645,148.1546,0,6811,0.00010000000000,0.01090556,0.0000122760000,6550.203,87.930,181.902,162.234,PAYLOAD,2019-05-24,2020-08-09
